IRIDIUM 112             
1 41925U 17003J   24338.82256812  .00000710  00000+0  24627-3 0  9997
2 41925  86.3948 322.4754 0002577  89.8582 270.2909 14.34219920412954
IRIDIUM 111             
1 41926U 17003K   24339.01918692  .00000301  00000+0  10047-3 0  9998
2 41926  86.3949 322.4514 0002288  84.5850 275.5607 14.34213839413035
IRIDIUM 113             
1 42803U 17039A   24338.58054342  .00000637  00000+0  22054-3 0  9999
2 42803  86.4010 196.4240 0002411  86.9214 273.2257 14.34221027390839
IRIDIUM 123             
1 42804U 17039B   24338.76156191  .00000576  00000+0  19875-3 0  9994
2 42804  86.3996 227.7912 0002015  76.3070 283.8350 14.34218577389621
IRIDIUM 120             
1 42805U 17039C   24338.85327929  .00000725  00000+0  25178-3 0  9993
2 42805  86.3996 196.1653 0001770  82.6842 277.4555 14.34216495390868
IRIDIUM 115             
1 42806U 17039D   24338.85605848  .00000992  00000+0  28880-3 0  9992
2 42806  86.4536 196.2141 0002065  73.8581 286.2847 14.43287283393445
IRIDIUM 118             
1 42807U 17039E   24339.14211285  .00000106  00000+0  30858-4 0  9990
2 42807  86.3996 227.6328 0002132  85.4756 274.6683 14.34210373389685
IRIDIUM 117             
1 42808U 17039F   24339.16113287  .00000784  00000+0  27273-3 0  9994
2 42808  86.3993 227.5883 0002018  71.5803 288.5612 14.34214518389715
